{
"type": "FeatureCollection",
"name": "north_slope_borough_boundary_tiger2025",
"crs": { "type": "name", "properties": { "name": "urn:ogc:def:crs:OGC:1.3:CRS84" } },
"features": [
{ "type": "Feature", "properties": { "STATEFP": "02", "COUNTYFP": "185", "GEOID": "02185", "NAME": "North Slope", "NAMELSAD": "North Slope Borough", "LSAD": "04", "ALAND": 229972241966, "AWATER": 15630941601, "INTPTLAT": "+69.4493427", "INTPTLON": "-153.4728302", "source_url": "https://www2.census.gov/geo/tiger/TIGER2025/COUNTY/tl_2025_us_county.zip", "source_note": "U.S. Census Bureau TIGER/Line 2025 county boundary; filtered to North Slope Borough, Alaska, and simplified for public website maps." }, "geometry": { "type": "Polygon", "coordinates": [ [ [ -166.971742, 68.345199 ], [ -166.912914, 68.385326 ], [ -166.849981, 68.401644 ], [ -166.457838, 68.466135 ], [ -166.434915, 68.530642 ], [ -166.367664, 68.574994 ], [ -166.371236, 68.651302 ], [ -166.333297, 68.696133 ], [ -166.327312, 68.781756 ], [ -166.366119, 68.868875 ], [ -166.347428, 68.900386 ], [ -166.278334, 68.92707 ], [ -165.620856, 68.903708 ], [ -165.357048, 68.908939 ], [ -164.638672, 68.966439 ], [ -164.279379, 68.979617 ], [ -164.020365, 69.03315 ], [ -163.792339, 69.108021 ], [ -163.650798, 69.168692 ], [ -163.333191, 69.35932 ], [ -163.289589, 69.430357 ], [ -163.287772, 69.632384 ], [ -163.133561, 69.838702 ], [ -162.818817, 69.999028 ], [ -162.605901, 70.146847 ], [ -162.465221, 70.217243 ], [ -161.948657, 70.374742 ], [ -161.870216, 70.382785 ], [ -161.315134, 70.347256 ], [ -160.907861, 70.415742 ], [ -160.665148, 70.476437 ], [ -160.414217, 70.561298 ], [ -159.755467, 70.830526 ], [ -159.23844, 70.920281 ], [ -158.733998, 70.963119 ], [ -158.620767, 70.945568 ], [ -158.552723, 70.902828 ], [ -158.333536, 70.872034 ], [ -158.171463, 70.871047 ], [ -157.931469, 70.902154 ], [ -157.532422, 71.007554 ], [ -157.348288, 71.087976 ], [ -156.94083, 71.311204 ], [ -156.760867, 71.372877 ], [ -156.642261, 71.396139 ], [ -156.582252, 71.427671 ], [ -156.48772, 71.439786 ], [ -155.926428, 71.357685 ], [ -155.827361, 71.328692 ], [ -155.756215, 71.283381 ], [ -155.458865, 71.26859 ], [ -155.003322, 71.200078 ], [ -154.626275, 71.100724 ], [ -154.437675, 71.023552 ], [ -153.899175, 70.936218 ], [ -153.512403, 70.935944 ], [ -153.27431, 70.970957 ], [ -153.000113, 70.969877 ], [ -152.816845, 70.960524 ], [ -152.679914, 70.934576 ], [ -152.509757, 70.934726 ], [ -152.151851, 70.875131 ], [ -152.058155, 70.841165 ], [ -152.04636, 70.813156 ], [ -151.61274, 70.593604 ], [ -151.516778, 70.571355 ], [ -151.503329, 70.536023 ], [ -151.548891, 70.491085 ], [ -151.314977, 70.463426 ], [ -151.189837, 70.492924 ], [ -150.92972, 70.514285 ], [ -150.795152, 70.548359 ], [ -150.34524, 70.553232 ], [ -150.323214, 70.57856 ], [ -150.242712, 70.604337 ], [ -150.117869, 70.606181 ], [ -150.033533, 70.587698 ], [ -149.929511, 70.614763 ], [ -149.719131, 70.621936 ], [ -149.407348, 70.603825 ], [ -149.090476, 70.56542 ], [ -148.974944, 70.533706 ], [ -148.78726, 70.525377 ], [ -148.651767, 70.478168 ], [ -148.548867, 70.472972 ], [ -148.487009, 70.453316 ], [ -148.514939, 70.489716 ], [ -148.421305, 70.532864 ], [ -148.292512, 70.537459 ], [ -148.126929, 70.501345 ], [ -148.051965, 70.538833 ], [ -147.899626, 70.542099 ], [ -147.818531, 70.520023 ], [ -147.778474, 70.491661 ], [ -147.779436, 70.471869 ], [ -147.652482, 70.459704 ], [ -147.611266, 70.436478 ], [ -147.455158, 70.445705 ], [ -147.372518, 70.430539 ], [ -147.328351, 70.407433 ], [ -147.225937, 70.388986 ], [ -147.171908, 70.350164 ], [ -146.926522, 70.350783 ], [ -146.777882, 70.315744 ], [ -146.708963, 70.28243 ], [ -146.377918, 70.28375 ], [ -146.206061, 70.254694 ], [ -145.981781, 70.242307 ], [ -145.335508, 70.098708 ], [ -145.064983, 70.087611 ], [ -144.926553, 70.040021 ], [ -144.681468, 70.015773 ], [ -144.529104, 70.079061 ], [ -144.056861, 70.138663 ], [ -143.940585, 70.169685 ], [ -143.575659, 70.199428 ], [ -143.411447, 70.183571 ], [ -143.226433, 70.201998 ], [ -142.480273, 70.033905 ], [ -142.057807, 69.90335 ], [ -141.591453, 69.814582 ], [ -141.377896, 69.744147 ], [ -141.002782, 69.703648 ], [ -141.000901, 68.49836 ], [ -146.0, 68.5 ], [ -146.0, 68.0 ], [ -155.318744, 68.000032 ], [ -155.318748, 68.034942 ], [ -156.236817, 68.034926 ], [ -156.236831, 68.121498 ], [ -157.15491, 68.121483 ], [ -157.154924, 68.208054 ], [ -159.693477, 68.207992 ], [ -159.693487, 68.294564 ], [ -160.159452, 68.294553 ], [ -160.15944, 68.207982 ], [ -160.177497, 68.207981 ], [ -161.091351, 68.207961 ], [ -161.091364, 68.294532 ], [ -161.55732, 68.294521 ], [ -161.557328, 68.207949 ], [ -162.023261, 68.20794 ], [ -162.023273, 68.294511 ], [ -162.722202, 68.294496 ], [ -162.72219, 68.207926 ], [ -164.499463, 68.20789 ], [ -164.499437, 68.034748 ], [ -165.68438, 68.034723 ], [ -166.03391, 68.091812 ], [ -166.095919, 68.118267 ], [ -166.177537, 68.18503 ], [ -166.364776, 68.244265 ], [ -166.651983, 68.288318 ], [ -166.86059, 68.287478 ], [ -166.942041, 68.302594 ], [ -166.972107, 68.322448 ], [ -166.971742, 68.345199 ] ] ] } }
]
}
